[{"OBJECT_NAME":"STARLINK-31794","OBJECT_ID":"2024-093X","EPOCH":"2026-02-09T06:10:20.368416","MEAN_MOTION":15.27563682,"ECCENTRICITY":0.00014792,"INCLINATION":43.0053,"RA_OF_ASC_NODE":9.7598,"ARG_OF_PERICENTER":272.6807,"MEAN_ANOMALY":87.3876,"EPHEMERIS_TYPE":0,"CLASSIFICATION_TYPE":"U","NORAD_CAT_ID":59803,"ELEMENT_SET_NO":999,"REV_AT_EPOCH":9841,"BSTAR":-4.9399798e-5,"MEAN_MOTION_DOT":-1.621e-5,"MEAN_MOTION_DDOT":0},{"OBJECT_NAME":"STARLINK-31824","OBJECT_ID":"2024-093Y","EPOCH":"2026-02-09T06:04:44.546304","MEAN_MOTION":15.27646839,"ECCENTRICITY":0.00019893,"INCLINATION":43.0006,"RA_OF_ASC_NODE":9.727,"ARG_OF_PERICENTER":263.4919,"MEAN_ANOMALY":96.5706,"EPHEMERIS_TYPE":0,"CLASSIFICATION_TYPE":"U","NORAD_CAT_ID":59804,"ELEMENT_SET_NO":999,"REV_AT_EPOCH":9834,"BSTAR":-0.00051722224,"MEAN_MOTION_DOT":-0.00014497,"MEAN_MOTION_DDOT":0},{"OBJECT_NAME":"STARLINK-31947","OBJECT_ID":"2024-097A","EPOCH":"2026-02-09T03:27:03.511296","MEAN_MOTION":15.27579401,"ECCENTRICITY":0.00018781,"INCLINATION":43.0054,"RA_OF_ASC_NODE":75.3611,"ARG_OF_PERICENTER":309.3449,"MEAN_ANOMALY":50.7236,"EPHEMERIS_TYPE":0,"CLASSIFICATION_TYPE":"U","NORAD_CAT_ID":59835,"ELEMENT_SET_NO":999,"REV_AT_EPOCH":9755,"BSTAR":0.00016642797,"MEAN_MOTION_DOT":4.32e-5,"MEAN_MOTION_DDOT":0},{"OBJECT_NAME":"STARLINK-31929","OBJECT_ID":"2024-097B","EPOCH":"2026-02-09T02:50:16.222848","MEAN_MOTION":15.27575042,"ECCENTRICITY":6.306e-5,"INCLINATION":42.9993,"RA_OF_ASC_NODE":76.0235,"ARG_OF_PERICENTER":279.2182,"MEAN_ANOMALY":80.8598,"EPHEMERIS_TYPE":0,"CLASSIFICATION_TYPE":"U","NORAD_CAT_ID":59836,"ELEMENT_SET_NO":999,"REV_AT_EPOCH":9754,"BSTAR":5.5371268e-5,"MEAN_MOTION_DOT":1.262e-5,"MEAN_MOTION_DDOT":0},{"OBJECT_NAME":"STARLINK-31927","OBJECT_ID":"2024-097C","EPOCH":"2026-02-09T02:18:48.811392","MEAN_MOTION":15.27586061,"ECCENTRICITY":0.00011989,"INCLINATION":43.0027,"RA_OF_ASC_NODE":75.8576,"ARG_OF_PERICENTER":283.9832,"MEAN_ANOMALY":76.0886,"EPHEMERIS_TYPE":0,"CLASSIFICATION_TYPE":"U","NORAD_CAT_ID":59837,"ELEMENT_SET_NO":999,"REV_AT_EPOCH":9754,"BSTAR":-5.9436642e-5,"MEAN_MOTION_DOT":-1.898e-5,"MEAN_MOTION_DDOT":0},{"OBJECT_NAME":"STARLINK-31855","OBJECT_ID":"2024-097D","EPOCH":"2026-02-09T03:21:30.671712","MEAN_MOTION":15.27601876,"ECCENTRICITY":0.00014659,"INCLINATION":42.9977,"RA_OF_ASC_NODE":75.31,"ARG_OF_PERICENTER":285.1931,"MEAN_ANOMALY":74.8759,"EPHEMERIS_TYPE":0,"CLASSIFICATION_TYPE":"U","NORAD_CAT_ID":59838,"ELEMENT_SET_NO":999,"REV_AT_EPOCH":9755,"BSTAR":0.00078360837,"MEAN_MOTION_DOT":0.00021378,"MEAN_MOTION_DDOT":0},{"OBJECT_NAME":"STARLINK-31887","OBJECT_ID":"2024-097E","EPOCH":"2026-02-08T14:22:34.114080","MEAN_MOTION":15.27570813,"ECCENTRICITY":0.0002537,"INCLINATION":43.0037,"RA_OF_ASC_NODE":79.002,"ARG_OF_PERICENTER":284.5539,"MEAN_ANOMALY":75.5031,"EPHEMERIS_TYPE":0,"CLASSIFICATION_TYPE":"U","NORAD_CAT_ID":59839,"ELEMENT_SET_NO":999,"REV_AT_EPOCH":9746,"BSTAR":7.8147e-5,"MEAN_MOTION_DOT":1.888e-5,"MEAN_MOTION_DDOT":0},{"OBJECT_NAME":"STARLINK-31852","OBJECT_ID":"2024-097G","EPOCH":"2026-02-09T02:23:42.201600","MEAN_MOTION":15.27572783,"ECCENTRICITY":2.303e-5,"INCLINATION":42.998,"RA_OF_ASC_NODE":68.0918,"ARG_OF_PERICENTER":231.7661,"MEAN_ANOMALY":128.317,"EPHEMERIS_TYPE":0,"CLASSIFICATION_TYPE":"U","NORAD_CAT_ID":59841,"ELEMENT_SET_NO":999,"REV_AT_EPOCH":9763,"BSTAR":3.8972182e-5,"MEAN_MOTION_DOT":8.11e-6,"MEAN_MOTION_DDOT":0},{"OBJECT_NAME":"STARLINK-31906","OBJECT_ID":"2024-097H","EPOCH":"2026-02-09T02:29:55.066848","MEAN_MOTION":15.27576057,"ECCENTRICITY":0.00010777,"INCLINATION":43.0001,"RA_OF_ASC_NODE":75.9121,"ARG_OF_PERICENTER":246.4835,"MEAN_ANOMALY":113.5904,"EPHEMERIS_TYPE":0,"CLASSIFICATION_TYPE":"U","NORAD_CAT_ID":59842,"ELEMENT_SET_NO":999,"REV_AT_EPOCH":9754,"BSTAR":2.257555e-5,"MEAN_MOTION_DOT":3.59e-6,"MEAN_MOTION_DDOT":0},{"OBJECT_NAME":"STARLINK-31857","OBJECT_ID":"2024-097J","EPOCH":"2026-02-09T03:12:16.588512","MEAN_MOTION":15.27572702,"ECCENTRICITY":0.0001218,"INCLINATION":43.0051,"RA_OF_ASC_NODE":75.2699,"ARG_OF_PERICENTER":279.7203,"MEAN_ANOMALY":80.3511,"EPHEMERIS_TYPE":0,"CLASSIFICATION_TYPE":"U","NORAD_CAT_ID":59843,"ELEMENT_SET_NO":999,"REV_AT_EPOCH":9755,"BSTAR":-6.3828748e-5,"MEAN_MOTION_DOT":-2.018e-5,"MEAN_MOTION_DDOT":0},{"OBJECT_NAME":"STARLINK-31851","OBJECT_ID":"2024-097K","EPOCH":"2026-02-09T03:32:36.832992","MEAN_MOTION":15.27564124,"ECCENTRICITY":0.00012943,"INCLINATION":43.0006,"RA_OF_ASC_NODE":75.3769,"ARG_OF_PERICENTER":176.9328,"MEAN_ANOMALY":183.1531,"EPHEMERIS_TYPE":0,"CLASSIFICATION_TYPE":"U","NORAD_CAT_ID":59844,"ELEMENT_SET_NO":999,"REV_AT_EPOCH":9755,"BSTAR":0.00010386711,"MEAN_MOTION_DOT":2.596e-5,"MEAN_MOTION_DDOT":0},{"OBJECT_NAME":"STARLINK-31903","OBJECT_ID":"2024-097L","EPOCH":"2026-02-09T03:43:16.104000","MEAN_MOTION":15.27521704,"ECCENTRICITY":8.43e-5,"INCLINATION":42.9989,"RA_OF_ASC_NODE":68.5037,"ARG_OF_PERICENTER":275.2601,"MEAN_ANOMALY":84.8154,"EPHEMERIS_TYPE":0,"CLASSIFICATION_TYPE":"U","NORAD_CAT_ID":59845,"ELEMENT_SET_NO":999,"REV_AT_EPOCH":9763,"BSTAR":0.00034389572,"MEAN_MOTION_DOT":9.196e-5,"MEAN_MOTION_DDOT":0},{"OBJECT_NAME":"STARLINK-31922","OBJECT_ID":"2024-097M","EPOCH":"2026-02-09T03:17:49.460928","MEAN_MOTION":15.27568288,"ECCENTRICITY":5.785e-5,"INCLINATION":43.0026,"RA_OF_ASC_NODE":75.2957,"ARG_OF_PERICENTER":239.5534,"MEAN_ANOMALY":120.5261,"EPHEMERIS_TYPE":0,"CLASSIFICATION_TYPE":"U","NORAD_CAT_ID":59846,"ELEMENT_SET_NO":999,"REV_AT_EPOCH":9755,"BSTAR":-2.0923966e-5,"MEAN_MOTION_DOT":-8.37e-6,"MEAN_MOTION_DDOT":0},{"OBJECT_NAME":"STARLINK-31889","OBJECT_ID":"2024-097N","EPOCH":"2026-02-08T11:21:39.587904","MEAN_MOTION":15.2757594,"ECCENTRICITY":5.273e-5,"INCLINATION":42.9994,"RA_OF_ASC_NODE":79.7789,"ARG_OF_PERICENTER":244.7704,"MEAN_ANOMALY":115.3093,"EPHEMERIS_TYPE":0,"CLASSIFICATION_TYPE":"U","NORAD_CAT_ID":59847,"ELEMENT_SET_NO":999,"REV_AT_EPOCH":9744,"BSTAR":1.8888988e-5,"MEAN_MOTION_DOT":2.58e-6,"MEAN_MOTION_DDOT":0},{"OBJECT_NAME":"STARLINK-31859","OBJECT_ID":"2024-097P","EPOCH":"2026-02-09T07:00:49.461696","MEAN_MOTION":15.27585868,"ECCENTRICITY":8.247e-5,"INCLINATION":43.0013,"RA_OF_ASC_NODE":67.8179,"ARG_OF_PERICENTER":186.704,"MEAN_ANOMALY":173.38,"EPHEMERIS_TYPE":0,"CLASSIFICATION_TYPE":"U","NORAD_CAT_ID":59848,"ELEMENT_SET_NO":999,"REV_AT_EPOCH":9765,"BSTAR":4.4462231e-5,"MEAN_MOTION_DOT":9.62e-6,"MEAN_MOTION_DDOT":0},{"OBJECT_NAME":"STARLINK-31895","OBJECT_ID":"2024-097Q","EPOCH":"2026-02-09T03:38:10.116672","MEAN_MOTION":15.27580033,"ECCENTRICITY":9.625e-5,"INCLINATION":43.0044,"RA_OF_ASC_NODE":75.41,"ARG_OF_PERICENTER":237.8263,"MEAN_ANOMALY":122.2496,"EPHEMERIS_TYPE":0,"CLASSIFICATION_TYPE":"U","NORAD_CAT_ID":59849,"ELEMENT_SET_NO":999,"REV_AT_EPOCH":9755,"BSTAR":3.5091616e-5,"MEAN_MOTION_DOT":7.04e-6,"MEAN_MOTION_DDOT":0},{"OBJECT_NAME":"STARLINK-31899","OBJECT_ID":"2024-097R","EPOCH":"2026-02-09T03:43:43.387392","MEAN_MOTION":15.27577388,"ECCENTRICITY":0.00013245,"INCLINATION":43.0041,"RA_OF_ASC_NODE":75.4376,"ARG_OF_PERICENTER":269.5953,"MEAN_ANOMALY":90.4747,"EPHEMERIS_TYPE":0,"CLASSIFICATION_TYPE":"U","NORAD_CAT_ID":59850,"ELEMENT_SET_NO":999,"REV_AT_EPOCH":9755,"BSTAR":-5.932649e-6,"MEAN_MOTION_DOT":-4.25e-6,"MEAN_MOTION_DDOT":0},{"OBJECT_NAME":"STARLINK-31896","OBJECT_ID":"2024-097S","EPOCH":"2026-02-08T04:16:56.229312","MEAN_MOTION":15.27559856,"ECCENTRICITY":0.00031821,"INCLINATION":43.0008,"RA_OF_ASC_NODE":81.005,"ARG_OF_PERICENTER":298.8173,"MEAN_ANOMALY":61.2359,"EPHEMERIS_TYPE":0,"CLASSIFICATION_TYPE":"U","NORAD_CAT_ID":59851,"ELEMENT_SET_NO":999,"REV_AT_EPOCH":9740,"BSTAR":0.00014971919,"MEAN_MOTION_DOT":3.857e-5,"MEAN_MOTION_DDOT":0},{"OBJECT_NAME":"STARLINK-31892","OBJECT_ID":"2024-097U","EPOCH":"2026-02-09T02:41:01.221216","MEAN_MOTION":15.27574057,"ECCENTRICITY":0.00032425,"INCLINATION":42.9958,"RA_OF_ASC_NODE":75.9669,"ARG_OF_PERICENTER":303.5644,"MEAN_ANOMALY":56.4897,"EPHEMERIS_TYPE":0,"CLASSIFICATION_TYPE":"U","NORAD_CAT_ID":59853,"ELEMENT_SET_NO":999,"REV_AT_EPOCH":9754,"BSTAR":2.0846838e-5,"MEAN_MOTION_DOT":3.11e-6,"MEAN_MOTION_DDOT":0},{"OBJECT_NAME":"STARLINK-31891","OBJECT_ID":"2024-097V","EPOCH":"2026-02-09T02:46:32.334528","MEAN_MOTION":15.27593405,"ECCENTRICITY":0.00013052,"INCLINATION":42.9962,"RA_OF_ASC_NODE":75.988,"ARG_OF_PERICENTER":236.6524,"MEAN_ANOMALY":123.4203,"EPHEMERIS_TYPE":0,"CLASSIFICATION_TYPE":"U","NORAD_CAT_ID":59854,"ELEMENT_SET_NO":999,"REV_AT_EPOCH":9754,"BSTAR":9.3943194e-5,"MEAN_MOTION_DOT":2.325e-5,"MEAN_MOTION_DDOT":0},{"OBJECT_NAME":"STARLINK-31882","OBJECT_ID":"2024-097W","EPOCH":"2026-02-09T02:12:48.624480","MEAN_MOTION":15.27576545,"ECCENTRICITY":8.978e-5,"INCLINATION":42.9984,"RA_OF_ASC_NODE":68.8884,"ARG_OF_PERICENTER":306.5751,"MEAN_ANOMALY":53.5017,"EPHEMERIS_TYPE":0,"CLASSIFICATION_TYPE":"U","NORAD_CAT_ID":59855,"ELEMENT_SET_NO":999,"REV_AT_EPOCH":9762,"BSTAR":4.3124125e-5,"MEAN_MOTION_DOT":9.25e-6,"MEAN_MOTION_DDOT":0},{"OBJECT_NAME":"STARLINK-31691","OBJECT_ID":"2024-097X","EPOCH":"2026-02-09T03:06:43.367904","MEAN_MOTION":15.27570008,"ECCENTRICITY":0.00020163,"INCLINATION":43.0049,"RA_OF_ASC_NODE":75.2402,"ARG_OF_PERICENTER":280.6868,"MEAN_ANOMALY":79.3757,"EPHEMERIS_TYPE":0,"CLASSIFICATION_TYPE":"U","NORAD_CAT_ID":59856,"ELEMENT_SET_NO":999,"REV_AT_EPOCH":9755,"BSTAR":-2.6961018e-5,"MEAN_MOTION_DOT":-1.004e-5,"MEAN_MOTION_DDOT":0},{"OBJECT_NAME":"STARLINK-31569","OBJECT_ID":"2024-097Y","EPOCH":"2026-02-09T02:24:21.791808","MEAN_MOTION":15.27577429,"ECCENTRICITY":0.00018081,"INCLINATION":43.0024,"RA_OF_ASC_NODE":75.8815,"ARG_OF_PERICENTER":264.3839,"MEAN_ANOMALY":95.6806,"EPHEMERIS_TYPE":0,"CLASSIFICATION_TYPE":"U","NORAD_CAT_ID":59857,"ELEMENT_SET_NO":999,"REV_AT_EPOCH":9754,"BSTAR":1.5149922e-5,"MEAN_MOTION_DOT":1.55e-6,"MEAN_MOTION_DDOT":0}]
